[{"OBJECT_NAME":"GPS BIIF-11","OBJECT_ID":"2015-062A","EPOCH":"2026-04-25T22:14:20.419008","MEAN_MOTION":2.00566971,"ECCENTRICITY":0.01112501,"INCLINATION":56.9265,"RA_OF_ASC_NODE":32.8248,"ARG_OF_PERICENTER":231.5206,"MEAN_ANOMALY":127.4823,"EPHEMERIS_TYPE":0,"CLASSIFICATION_TYPE":"U","NORAD_CAT_ID":41019,"ELEMENT_SET_NO":999,"REV_AT_EPOCH":7678,"BSTAR":0,"MEAN_MOTION_DOT":-9.7e-7,"MEAN_MOTION_DDOT":0},{"OBJECT_NAME":"ELEKTRO-L 2","OBJECT_ID":"2015-074A","EPOCH":"2026-04-26T16:55:13.729728","MEAN_MOTION":1.00270591,"ECCENTRICITY":0.0002288,"INCLINATION":6.5672,"RA_OF_ASC_NODE":71.143,"ARG_OF_PERICENTER":255.9887,"MEAN_ANOMALY":126.8673,"EPHEMERIS_TYPE":0,"CLASSIFICATION_TYPE":"U","NORAD_CAT_ID":41105,"ELEMENT_SET_NO":999,"REV_AT_EPOCH":3799,"BSTAR":0,"MEAN_MOTION_DOT":-1.24e-6,"MEAN_MOTION_DDOT":0},{"OBJECT_NAME":"GSAT0209 (GALILEO 12)","OBJECT_ID":"2015-079A","EPOCH":"2026-04-25T05:54:23.550624","MEAN_MOTION":1.70474059,"ECCENTRICITY":0.00056798,"INCLINATION":55.7962,"RA_OF_ASC_NODE":102.7123,"ARG_OF_PERICENTER":329.0159,"MEAN_ANOMALY":30.9454,"EPHEMERIS_TYPE":0,"CLASSIFICATION_TYPE":"U","NORAD_CAT_ID":41174,"ELEMENT_SET_NO":999,"REV_AT_EPOCH":6387,"BSTAR":0,"MEAN_MOTION_DOT":4.6e-7,"MEAN_MOTION_DDOT":0},{"OBJECT_NAME":"GSAT0208 (GALILEO 11)","OBJECT_ID":"2015-079B","EPOCH":"2026-04-26T01:16:15.463200","MEAN_MOTION":1.70473954,"ECCENTRICITY":0.00050504,"INCLINATION":55.7944,"RA_OF_ASC_NODE":102.6873,"ARG_OF_PERICENTER":330.1145,"MEAN_ANOMALY":29.8515,"EPHEMERIS_TYPE":0,"CLASSIFICATION_TYPE":"U","NORAD_CAT_ID":41175,"ELEMENT_SET_NO":999,"REV_AT_EPOCH":6430,"BSTAR":0,"MEAN_MOTION_DOT":4.6e-7,"MEAN_MOTION_DDOT":0},{"OBJECT_NAME":"GPS BIIF-12","OBJECT_ID":"2016-007A","EPOCH":"2026-04-26T00:20:45.251232","MEAN_MOTION":2.0055414,"ECCENTRICITY":0.00961186,"INCLINATION":55.4924,"RA_OF_ASC_NODE":91.5265,"ARG_OF_PERICENTER":247.0858,"MEAN_ANOMALY":111.8862,"EPHEMERIS_TYPE":0,"CLASSIFICATION_TYPE":"U","NORAD_CAT_ID":41328,"ELEMENT_SET_NO":999,"REV_AT_EPOCH":7479,"BSTAR":0,"MEAN_MOTION_DOT":3.5e-7,"MEAN_MOTION_DDOT":0},{"OBJECT_NAME":"GSAT0211 (GALILEO 14)","OBJECT_ID":"2016-030A","EPOCH":"2026-04-24T10:00:52.436448","MEAN_MOTION":1.70474087,"ECCENTRICITY":0.00025245,"INCLINATION":55.1119,"RA_OF_ASC_NODE":223.1731,"ARG_OF_PERICENTER":359.1559,"MEAN_ANOMALY":0.8397,"EPHEMERIS_TYPE":0,"CLASSIFICATION_TYPE":"U","NORAD_CAT_ID":41549,"ELEMENT_SET_NO":999,"REV_AT_EPOCH":6175,"BSTAR":0,"MEAN_MOTION_DOT":-3.0e-7,"MEAN_MOTION_DDOT":0},{"OBJECT_NAME":"GSAT0210 (GALILEO 13)","OBJECT_ID":"2016-030B","EPOCH":"2026-04-25T06:16:01.107552","MEAN_MOTION":1.70474037,"ECCENTRICITY":0.00028107,"INCLINATION":55.1104,"RA_OF_ASC_NODE":223.148,"ARG_OF_PERICENTER":225.6811,"MEAN_ANOMALY":134.2889,"EPHEMERIS_TYPE":0,"CLASSIFICATION_TYPE":"U","NORAD_CAT_ID":41550,"ELEMENT_SET_NO":999,"REV_AT_EPOCH":6176,"BSTAR":0,"MEAN_MOTION_DOT":-3.6e-7,"MEAN_MOTION_DDOT":0},{"OBJECT_NAME":"INSAT-3DR","OBJECT_ID":"2016-054A","EPOCH":"2026-04-26T19:03:10.914912","MEAN_MOTION":1.00271543,"ECCENTRICITY":0.0011594,"INCLINATION":0.115,"RA_OF_ASC_NODE":86.2254,"ARG_OF_PERICENTER":195.1551,"MEAN_ANOMALY":293.1958,"EPHEMERIS_TYPE":0,"CLASSIFICATION_TYPE":"U","NORAD_CAT_ID":41752,"ELEMENT_SET_NO":999,"REV_AT_EPOCH":3530,"BSTAR":0,"MEAN_MOTION_DOT":-8.8e-7,"MEAN_MOTION_DDOT":0},{"OBJECT_NAME":"GSAT0207 (GALILEO 15)","OBJECT_ID":"2016-069A","EPOCH":"2026-04-26T03:01:21.139104","MEAN_MOTION":1.70474011,"ECCENTRICITY":0.0005924,"INCLINATION":55.4667,"RA_OF_ASC_NODE":102.525,"ARG_OF_PERICENTER":317.5272,"MEAN_ANOMALY":42.4215,"EPHEMERIS_TYPE":0,"CLASSIFICATION_TYPE":"U","NORAD_CAT_ID":41859,"ELEMENT_SET_NO":999,"REV_AT_EPOCH":5851,"BSTAR":0,"MEAN_MOTION_DOT":4.5e-7,"MEAN_MOTION_DDOT":0},{"OBJECT_NAME":"GSAT0212 (GALILEO 16)","OBJECT_ID":"2016-069B","EPOCH":"2026-04-25T23:30:22.568832","MEAN_MOTION":1.70474171,"ECCENTRICITY":0.00046568,"INCLINATION":55.4638,"RA_OF_ASC_NODE":102.5243,"ARG_OF_PERICENTER":340.7517,"MEAN_ANOMALY":19.2254,"EPHEMERIS_TYPE":0,"CLASSIFICATION_TYPE":"U","NORAD_CAT_ID":41860,"ELEMENT_SET_NO":999,"REV_AT_EPOCH":5876,"BSTAR":0,"MEAN_MOTION_DOT":4.5e-7,"MEAN_MOTION_DDOT":0},{"OBJECT_NAME":"GSAT0213 (GALILEO 17)","OBJECT_ID":"2016-069C","EPOCH":"2026-04-25T04:09:59.712192","MEAN_MOTION":1.70474518,"ECCENTRICITY":0.00058541,"INCLINATION":55.4662,"RA_OF_ASC_NODE":102.5544,"ARG_OF_PERICENTER":302.3888,"MEAN_ANOMALY":57.5492,"EPHEMERIS_TYPE":0,"CLASSIFICATION_TYPE":"U","NORAD_CAT_ID":41861,"ELEMENT_SET_NO":999,"REV_AT_EPOCH":5861,"BSTAR":0,"MEAN_MOTION_DOT":4.5e-7,"MEAN_MOTION_DDOT":0},{"OBJECT_NAME":"GSAT0214 (GALILEO 18)","OBJECT_ID":"2016-069D","EPOCH":"2026-04-25T21:45:04.996512","MEAN_MOTION":1.7047426,"ECCENTRICITY":0.00049117,"INCLINATION":55.4649,"RA_OF_ASC_NODE":102.5269,"ARG_OF_PERICENTER":307.4506,"MEAN_ANOMALY":52.4995,"EPHEMERIS_TYPE":0,"CLASSIFICATION_TYPE":"U","NORAD_CAT_ID":41862,"ELEMENT_SET_NO":999,"REV_AT_EPOCH":5875,"BSTAR":0,"MEAN_MOTION_DOT":4.5e-7,"MEAN_MOTION_DDOT":0},{"OBJECT_NAME":"GOES 16","OBJECT_ID":"2016-071A","EPOCH":"2026-04-26T14:46:48.544032","MEAN_MOTION":1.00271176,"ECCENTRICITY":0.0001503,"INCLINATION":0.2123,"RA_OF_ASC_NODE":85.2824,"ARG_OF_PERICENTER":250.0496,"MEAN_ANOMALY":356.2719,"EPHEMERIS_TYPE":0,"CLASSIFICATION_TYPE":"U","NORAD_CAT_ID":41866,"ELEMENT_SET_NO":999,"REV_AT_EPOCH":3458,"BSTAR":0,"MEAN_MOTION_DOT":-1.02e-6,"MEAN_MOTION_DDOT":0},{"OBJECT_NAME":"GSAT-17","OBJECT_ID":"2017-040B","EPOCH":"2026-04-26T21:12:21.502080","MEAN_MOTION":1.00274167,"ECCENTRICITY":0.0004313,"INCLINATION":0.019,"RA_OF_ASC_NODE":251.9275,"ARG_OF_PERICENTER":64.923,"MEAN_ANOMALY":309.6344,"EPHEMERIS_TYPE":0,"CLASSIFICATION_TYPE":"U","NORAD_CAT_ID":42815,"ELEMENT_SET_NO":999,"REV_AT_EPOCH":3227,"BSTAR":0,"MEAN_MOTION_DOT":-2.7e-6,"MEAN_MOTION_DDOT":0},{"OBJECT_NAME":"GSAT0215 (GALILEO 19)","OBJECT_ID":"2017-079A","EPOCH":"2026-04-23T11:07:24.507840","MEAN_MOTION":1.70474699,"ECCENTRICITY":0.00014285,"INCLINATION":55.0907,"RA_OF_ASC_NODE":223.0118,"ARG_OF_PERICENTER":264.4741,"MEAN_ANOMALY":95.5096,"EPHEMERIS_TYPE":0,"CLASSIFICATION_TYPE":"U","NORAD_CAT_ID":43055,"ELEMENT_SET_NO":999,"REV_AT_EPOCH":5205,"BSTAR":0,"MEAN_MOTION_DOT":-2.2e-7,"MEAN_MOTION_DDOT":0},{"OBJECT_NAME":"GSAT0216 (GALILEO 20)","OBJECT_ID":"2017-079B","EPOCH":"2026-04-24T22:16:03.139968","MEAN_MOTION":1.70474805,"ECCENTRICITY":0.0002775,"INCLINATION":55.0895,"RA_OF_ASC_NODE":222.9715,"ARG_OF_PERICENTER":284.1808,"MEAN_ANOMALY":75.7828,"EPHEMERIS_TYPE":0,"CLASSIFICATION_TYPE":"U","NORAD_CAT_ID":43056,"ELEMENT_SET_NO":999,"REV_AT_EPOCH":5209,"BSTAR":0,"MEAN_MOTION_DOT":-3.4e-7,"MEAN_MOTION_DDOT":0},{"OBJECT_NAME":"GSAT0217 (GALILEO 21)","OBJECT_ID":"2017-079C","EPOCH":"2026-04-26T07:43:18.641856","MEAN_MOTION":1.70474773,"ECCENTRICITY":0.0002278,"INCLINATION":55.0878,"RA_OF_ASC_NODE":222.9311,"ARG_OF_PERICENTER":305.0014,"MEAN_ANOMALY":54.9682,"EPHEMERIS_TYPE":0,"CLASSIFICATION_TYPE":"U","NORAD_CAT_ID":43057,"ELEMENT_SET_NO":999,"REV_AT_EPOCH":5210,"BSTAR":0,"MEAN_MOTION_DOT":-3.9e-7,"MEAN_MOTION_DDOT":0}]
